[{"OBJECT_NAME":"STARLINK-5232","OBJECT_ID":"2023-021AZ","EPOCH":"2026-03-09T17:14:54.333024","MEAN_MOTION":14.98347429,"ECCENTRICITY":0.00033761,"INCLINATION":70.0008,"RA_OF_ASC_NODE":164.1943,"ARG_OF_PERICENTER":275.1782,"MEAN_ANOMALY":84.8992,"EPHEMERIS_TYPE":0,"CLASSIFICATION_TYPE":"U","NORAD_CAT_ID":55675,"ELEMENT_SET_NO":999,"REV_AT_EPOCH":16929,"BSTAR":0.000156189,"MEAN_MOTION_DOT":1.772e-5,"MEAN_MOTION_DDOT":0},{"OBJECT_NAME":"COSMOS 2251 DEB","OBJECT_ID":"1993-036NZ","EPOCH":"2026-03-09T21:15:03.836448","MEAN_MOTION":14.91859868,"ECCENTRICITY":0.00323485,"INCLINATION":73.9961,"RA_OF_ASC_NODE":356.9153,"ARG_OF_PERICENTER":157.6141,"MEAN_ANOMALY":263.4728,"EPHEMERIS_TYPE":0,"CLASSIFICATION_TYPE":"U","NORAD_CAT_ID":34327,"ELEMENT_SET_NO":999,"REV_AT_EPOCH":90806,"BSTAR":0.0014341536,"MEAN_MOTION_DOT":0.00014628,"MEAN_MOTION_DDOT":0}]
